*******************************************************************************
JPL/HORIZONS               602 Marianna (A906 DJ)          2020-Jun-22 09:16:23
Rec #:     602 (+COV) Soln.date: 2020-May-20_01:08:59   # obs: 2501 (1906-2020)
 
IAU76/J2000 helio. ecliptic osc. elements (au, days, deg., period=Julian yrs):
 
  EPOCH=  2455964.5 ! 2012-Feb-07.00 (TDB)         Residual RMS= .31047
   EC= .2454645285114281   QR= 2.331308903529217   TP= 2456303.4545830842
   OM= 331.6005296251133   W=  46.11943954417487   IN= 15.07549635196147
   A= 3.089727377468332    MA= 298.4872217212215   ADIST= 3.848145851407448
   PER= 5.43111            N= .181477931           ANGMOM= .029312107
   DAN= 2.48137            DDN= 3.49888            L= 16.7169409
   B= 10.8051998           MOID= 1.35855997        TP= 2013-Jan-10.9545830842
 
Asteroid physical parameters (km, seconds, rotational period in hours):
   GM= n.a.                RAD= 55.222             ROTPER= 35.195
   H= 8.5                  G= .150                 B-V= .692
                           ALBEDO= .067            STYP= C
 
ASTEROID comments: 
1: soln ref.= JPL#40, OCC=0
2: source=ORB
*******************************************************************************
 
 
*******************************************************************************
Ephemeris / WWW_USER Mon Jun 22 09:16:23 2020 Pasadena, USA      / Horizons
*******************************************************************************
Target body name: 602 Marianna (A906 DJ)          {source: JPL#40}
Center body name: Solar System Barycenter (0)     {source: DE431}
Center-site name: BODY CENTER
*******************************************************************************
Start time      : A.D. 1969-Jun-28 00:00:00.0000 TDB
Stop  time      : A.D. 2071-May-04 00:00:00.0000 TDB
Step-size       : 7200 minutes
*******************************************************************************
Center geodetic : 0.00000000,0.00000000,0.0000000 {E-lon(deg),Lat(deg),Alt(km)}
Center cylindric: 0.00000000,0.00000000,0.0000000 {E-lon(deg),Dxy(km),Dz(km)}
Center radii    : (undefined)                                                  
Small perturbers: Yes                             {source: SB431-N16}
Output units    : AU-D
Output type     : GEOMETRIC cartesian states
Output format   : 2 (position and velocity)
Reference frame : Ecliptic of J2000.0
*******************************************************************************
Initial IAU76/J2000 heliocentric ecliptic osculating elements (au, days, deg.):
  EPOCH=  2455964.5 ! 2012-Feb-07.00 (TDB)         Residual RMS= .31047        
   EC= .2454645285114281   QR= 2.331308903529217   TP= 2456303.4545830842      
   OM= 331.6005296251133   W=  46.11943954417487   IN= 15.07549635196147       
  Equivalent ICRF heliocentric equatorial cartesian coordinates (au, au/d):
   X= 9.475487652588540E-01  Y=-2.259773332415444E+00  Z=-1.541185805737520E+00
  VX= 8.674634324953662E-03 VY= 3.902109587127013E-03 VZ= 4.265867265793167E-03
Asteroid physical parameters (km, seconds, rotational period in hours):        
   GM= n.a.                RAD= 55.222             ROTPER= 35.195              
   H= 8.5                  G= .150                 B-V= .692                   
                           ALBEDO= .067            STYP= C                     
*******************************************************************************
            JDTDB,            Calendar Date (TDB),        delta-T,                      X,                      Y,                      Z,                     VX,                     VY,                     VZ,
******************************************************************************************************************************************************************************************************************
$$SOE
2444460.500000000, A.D. 1980-Aug-09 00:00:00.0000,      51.183047,  1.648887044513252E+00,  1.628259424625003E+00,  5.976756138894963E-01, -7.911429733144940E-03,  9.377613584054013E-03,  1.287331354616490E-03,
2444465.500000000, A.D. 1980-Aug-14 00:00:00.0000,      51.182938,  1.608888269701858E+00,  1.674701739035767E+00,  6.039494389757887E-01, -8.087118816365407E-03,  9.198716931776369E-03,  1.222173850978547E-03,
2444470.500000000, A.D. 1980-Aug-19 00:00:00.0000,      51.182836,  1.568025524972587E+00,  1.720240828735812E+00,  6.098971562985577E-01, -8.257007115879204E-03,  9.016361155013235E-03,  1.156898638387813E-03,
2444475.500000000, A.D. 1980-Aug-24 00:00:00.0000,      51.182741,  1.526327963318086E+00,  1.764859959756275E+00,  6.155183319048584E-01, -8.421036932136756E-03,  8.830770858077888E-03,  1.091567300100153E-03,
2444480.500000000, A.D. 1980-Aug-29 00:00:00.0000,      51.182653,  1.483824997496520E+00,  1.808543519748877E+00,  6.208128358518603E-01, -8.579162013224130E-03,  8.642169977083981E-03,  1.026239836513279E-03,
2444485.500000000, A.D. 1980-Sep-03 00:00:00.0000,      51.182577,  1.440546243506147E+00,  1.851277013054656E+00,  6.257808339971915E-01, -8.731347263165963E-03,  8.450781149285963E-03,  9.609745491155631E-04,
2444490.500000000, A.D. 1980-Sep-08 00:00:00.0000,      51.182513,  1.396521465613036E+00,  1.893047052703288E+00,  6.304227792403780E-01, -8.877568413173498E-03,  8.256825116405778E-03,  8.958279369744317E-04,
2444495.500000000, A.D. 1980-Sep-13 00:00:00.0000,      51.182459,  1.351780523105975E+00,  1.933841349519059E+00,  6.347394022782138E-01, -9.017811660198487E-03,  8.060520164304499E-03,  8.308546058262093E-04,
2444500.500000000, A.D. 1980-Sep-18 00:00:00.0000,      51.182416,  1.306353318931739E+00,  1.973648698519676E+00,  6.387317019369069E-01, -9.152073276940410E-03,  7.862081600674198E-03,  7.661071896601595E-04,
2444505.500000000, A.D. 1980-Sep-23 00:00:00.0000,      51.182383,  1.260269750342786E+00,  2.012458962801149E+00,  6.424009351429080E-01, -9.280359197589075E-03,  7.661721271950419E-03,  7.016362845701673E-04,
2444510.500000000, A.D. 1980-Sep-28 00:00:00.0000,      51.182362,  1.213559661668081E+00,  2.050263055107246E+00,  6.457486065932468E-01, -9.402684583504744E-03,  7.459647120355537E-03,  6.374903946787302E-04,
2444515.500000000, A.D. 1980-Oct-03 00:00:00.0000,      51.182353,  1.166252799297456E+00,  2.087052917285791E+00,  6.487764581853365E-01, -9.519073372748219E-03,  7.256062781656664E-03,  5.737158899730761E-04,
2444520.500000000, A.D. 1980-Oct-08 00:00:00.0000,      51.182359,  1.118378768951203E+00,  2.122821497835924E+00,  6.514864582653002E-01, -9.629557817031295E-03,  7.051167223774800E-03,  5.103569758244847E-04,
2444525.500000000, A.D. 1980-Oct-13 00:00:00.0000,      51.182377,  1.069966995289395E+00,  2.157562727749864E+00,  6.538807907522900E-01, -9.734178009407199E-03,  6.845154425867303E-03,  4.474556737829016E-04,
2444530.500000000, A.D. 1980-Oct-18 00:00:00.0000,      51.182406,  1.021046683899252E+00,  2.191271494849581E+00,  6.559618441937254E-01, -9.832981405898663E-03,  6.638213097040180E-03,  3.850518130288117E-04,
2444535.500000000, A.D. 1980-Oct-23 00:00:00.0000,      51.182445,  9.716467856829434E-01,  2.223943616813708E+00,  6.577322008028428E-01, -9.926022344208403E-03,  6.430526433516021E-03,  3.231830317134720E-04,
2444540.500000000, A.D. 1980-Oct-28 00:00:00.0000,      51.182496,  9.217959636527329E-01,  2.255575813083654E+00,  6.591946255259806E-01, -1.001336156257122E-02,  6.222271912918364E-03,  2.618847873787935E-04,
2444545.500000000, A.D. 1980-Nov-02 00:00:00.0000,      51.182559,  8.715225621255620E-01,  2.286165675831075E+00,  6.603520551830856E-01, -1.009506572155875E-02,  6.013621124293878E-03,  2.011903757076942E-04,
2444550.500000000, A.D. 1980-Nov-07 00:00:00.0000,      51.182635,  8.208545782961967E-01,  2.315711640161707E+00,  6.612075877213082E-01, -1.017120693120472E-02,  5.804739632354482E-03,  1.411309568826157E-04,
2444555.500000000, A.D. 1980-Nov-12 00:00:00.0000,      51.182721,  7.698196361572757E-01,  2.344212953721412E+00,  6.617644716173952E-01, -1.024186228549139E-02,  5.595786873619901E-03,  8.173558852178379E-05,
2444560.500000000, A.D. 1980-Nov-17 00:00:00.0000,      51.182816,  7.184449627226968E-01,  2.371669645856655E+00,  6.620260954585663E-01, -1.030711340709277E-02,  5.386916081709830E-03,  2.303126400545187E-05,
2444565.500000000, A.D. 1980-Nov-22 00:00:00.0000,      51.182918,  6.667573664952985E-01,  2.398082496472066E+00,  6.619959777278789E-01, -1.036704600519548E-02,  5.178274240906874E-03, -3.495704399765895E-05,
2444570.500000000, A.D. 1980-Nov-27 00:00:00.0000,      51.183029,  6.147832181117286E-01,  2.423453004726324E+00,  6.616777568207786E-01, -1.042174944673689E-02,  4.970002067669997E-03, -9.220633465633299E-05,
2444575.500000000, A.D. 1980-Dec-02 00:00:00.0000,      51.183148,  5.625484330971757E-01,  2.447783357699847E+00,  6.610751813172514E-01, -1.047131634144164E-02,  4.762234017254702E-03, -1.486955258436481E-04,
2444580.500000000, A.D. 1980-Dec-07 00:00:00.0000,      51.183276,  5.100784566568410E-01,  2.471076399151990E+00,  6.601921005279049E-01, -1.051584214238561E-02,  4.555098312531173E-03, -2.044053978138987E-04,
2444585.500000000, A.D. 1980-Dec-12 00:00:00.0000,      51.183409,  4.573982504227950E-01,  2.493335598474014E+00,  6.590324553286107E-01, -1.055542476343210E-02,  4.348716993215794E-03, -2.593185341571542E-04,
2444590.500000000, A.D. 1980-Dec-17 00:00:00.0000,      51.183546,  4.045322810699858E-01,  2.514565019935946E+00,  6.576002692964468E-01, -1.059016421421701E-02,  4.143205983919450E-03, -3.134192603902903E-04,
2444595.500000000, A.D. 1980-Dec-22 00:00:00.0000,      51.183684,  3.515045107125839E-01,  2.534769292317183E+00,  6.558996401577580E-01, -1.062016225308125E-02,  3.938675179305985E-03, -3.666935805853953E-04,
